CCSDS_OMM_VERS = 2.0
CREATION_DATE  = 
ORIGINATOR     = 

OBJECT_NAME    = UNKNOWN
OBJECT_ID      = 
CENTER_NAME    = EARTH
REF_FRAME      = TEME
TIME_SYSTEM    = UTC
MEAN_ELEMENT_THEORY = SGP/SGP4

EPOCH          = 2026-01-31T18:03:06.235200
MEAN_MOTION    = 14.38481376
ECCENTRICITY   = .00316725
INCLINATION    = 98.6247
RA_OF_ASC_NODE = 37.4971
ARG_OF_PERICENTER = 217.8411
MEAN_ANOMALY   = 142.0550

EPHEMERIS_TYPE = 0
CLASSIFICATION_TYPE = U
NORAD_CAT_ID   = 270179
ELEMENT_SET_NO = 999
REV_AT_EPOCH   = 32279
BSTAR          = .18516537E-3
MEAN_MOTION_DOT = .524E-5
MEAN_MOTION_DDOT = 0

CCSDS_OMM_VERS = 2.0
CREATION_DATE  = 
ORIGINATOR     = 

OBJECT_NAME    = UNKNOWN
OBJECT_ID      = 
CENTER_NAME    = EARTH
REF_FRAME      = TEME
TIME_SYSTEM    = UTC
MEAN_ELEMENT_THEORY = SGP/SGP4

EPOCH          = 2026-02-01T05:14:06.642816
MEAN_MOTION    = 12.92523683
ECCENTRICITY   = .07014097
INCLINATION    = 72.9907
RA_OF_ASC_NODE = 5.2664
ARG_OF_PERICENTER = 293.2073
MEAN_ANOMALY   = 59.6633

EPHEMERIS_TYPE = 0
CLASSIFICATION_TYPE = U
NORAD_CAT_ID   = 270181
ELEMENT_SET_NO = 999
REV_AT_EPOCH   = 29034
BSTAR          = .25376515E-2
MEAN_MOTION_DOT = .2076E-4
MEAN_MOTION_DDOT = 0

CCSDS_OMM_VERS = 2.0
CREATION_DATE  = 
ORIGINATOR     = 

OBJECT_NAME    = UNKNOWN
OBJECT_ID      = 
CENTER_NAME    = EARTH
REF_FRAME      = TEME
TIME_SYSTEM    = UTC
MEAN_ELEMENT_THEORY = SGP/SGP4

EPOCH          = 2026-01-24T15:34:15.118176
MEAN_MOTION    = 13.01410674
ECCENTRICITY   = .00373784
INCLINATION    = 90.2412
RA_OF_ASC_NODE = 356.4164
ARG_OF_PERICENTER = 268.6420
MEAN_ANOMALY   = 91.0420

EPHEMERIS_TYPE = 0
CLASSIFICATION_TYPE = U
NORAD_CAT_ID   = 270183
ELEMENT_SET_NO = 999
REV_AT_EPOCH   = 29164
BSTAR          = -.97915774E-3
MEAN_MOTION_DOT = -.294E-5
MEAN_MOTION_DDOT = 0

CCSDS_OMM_VERS = 2.0
CREATION_DATE  = 
ORIGINATOR     = 

OBJECT_NAME    = UNKNOWN
OBJECT_ID      = 
CENTER_NAME    = EARTH
REF_FRAME      = TEME
TIME_SYSTEM    = UTC
MEAN_ELEMENT_THEORY = SGP/SGP4

EPOCH          = 2026-01-22T15:25:23.003904
MEAN_MOTION    = 12.96040919
ECCENTRICITY   = .0032155
INCLINATION    = 90.2391
RA_OF_ASC_NODE = 2.3703
ARG_OF_PERICENTER = 193.5124
MEAN_ANOMALY   = 166.5138

EPHEMERIS_TYPE = 0
CLASSIFICATION_TYPE = U
NORAD_CAT_ID   = 270184
ELEMENT_SET_NO = 999
REV_AT_EPOCH   = 28979
BSTAR          = .74902043E-3
MEAN_MOTION_DOT = .221E-5
MEAN_MOTION_DDOT = 0

CCSDS_OMM_VERS = 2.0
CREATION_DATE  = 
ORIGINATOR     = 

OBJECT_NAME    = UNKNOWN
OBJECT_ID      = 
CENTER_NAME    = EARTH
REF_FRAME      = TEME
TIME_SYSTEM    = UTC
MEAN_ELEMENT_THEORY = SGP/SGP4

EPOCH          = 2026-01-17T14:02:49.186464
MEAN_MOTION    = 11.64945549
ECCENTRICITY   = .07615198
INCLINATION    = 65.7623
RA_OF_ASC_NODE = 121.0216
ARG_OF_PERICENTER = 291.5716
MEAN_ANOMALY   = 60.5782

EPHEMERIS_TYPE = 0
CLASSIFICATION_TYPE = U
NORAD_CAT_ID   = 270185
ELEMENT_SET_NO = 999
REV_AT_EPOCH   = 26138
BSTAR          = .73700572E-2
MEAN_MOTION_DOT = .766E-5
MEAN_MOTION_DDOT = 0

CCSDS_OMM_VERS = 2.0
CREATION_DATE  = 
ORIGINATOR     = 

OBJECT_NAME    = UNKNOWN
OBJECT_ID      = 
CENTER_NAME    = EARTH
REF_FRAME      = TEME
TIME_SYSTEM    = UTC
MEAN_ELEMENT_THEORY = SGP/SGP4

EPOCH          = 2026-01-29T18:03:20.470464
MEAN_MOTION    = 13.09022840
ECCENTRICITY   = .00248302
INCLINATION    = 90.3268
RA_OF_ASC_NODE = 30.1864
ARG_OF_PERICENTER = 318.2528
MEAN_ANOMALY   = 41.6705

EPHEMERIS_TYPE = 0
CLASSIFICATION_TYPE = U
NORAD_CAT_ID   = 270186
ELEMENT_SET_NO = 999
REV_AT_EPOCH   = 29456
BSTAR          = .27334497E-2
MEAN_MOTION_DOT = .945E-5
MEAN_MOTION_DDOT = 0

CCSDS_OMM_VERS = 2.0
CREATION_DATE  = 
ORIGINATOR     = 

OBJECT_NAME    = UNKNOWN
OBJECT_ID      = 
CENTER_NAME    = EARTH
REF_FRAME      = TEME
TIME_SYSTEM    = UTC
MEAN_ELEMENT_THEORY = SGP/SGP4

EPOCH          = 2026-01-27T13:52:48.715968
MEAN_MOTION    = 14.46687864
ECCENTRICITY   = .00195051
INCLINATION    = 74.0357
RA_OF_ASC_NODE = 142.9481
ARG_OF_PERICENTER = 216.2519
MEAN_ANOMALY   = 143.7319

EPHEMERIS_TYPE = 0
CLASSIFICATION_TYPE = U
NORAD_CAT_ID   = 270187
ELEMENT_SET_NO = 999
REV_AT_EPOCH   = 5620
BSTAR          = .11724982E-2
MEAN_MOTION_DOT = .4222E-4
MEAN_MOTION_DDOT = 0

CCSDS_OMM_VERS = 2.0
CREATION_DATE  = 
ORIGINATOR     = 

OBJECT_NAME    = UNKNOWN
OBJECT_ID      = 
CENTER_NAME    = EARTH
REF_FRAME      = TEME
TIME_SYSTEM    = UTC
MEAN_ELEMENT_THEORY = SGP/SGP4

EPOCH          = 2026-02-02T08:28:54.659424
MEAN_MOTION    = 12.44619366
ECCENTRICITY   = .06997676
INCLINATION    = 74.3285
RA_OF_ASC_NODE = 276.1867
ARG_OF_PERICENTER = 44.5108
MEAN_ANOMALY   = 321.0019

EPHEMERIS_TYPE = 0
CLASSIFICATION_TYPE = U
NORAD_CAT_ID   = 270188
ELEMENT_SET_NO = 999
REV_AT_EPOCH   = 27959
BSTAR          = .74680613E-2
MEAN_MOTION_DOT = .2522E-4
MEAN_MOTION_DDOT = 0

CCSDS_OMM_VERS = 2.0
CREATION_DATE  = 
ORIGINATOR     = 

OBJECT_NAME    = UNKNOWN
OBJECT_ID      = 
CENTER_NAME    = EARTH
REF_FRAME      = TEME
TIME_SYSTEM    = UTC
MEAN_ELEMENT_THEORY = SGP/SGP4

EPOCH          = 2026-01-07T15:08:42.649152
MEAN_MOTION    = 11.13603566
ECCENTRICITY   = .10655599
INCLINATION    = 63.4090
RA_OF_ASC_NODE = 144.6119
ARG_OF_PERICENTER = 300.3799
MEAN_ANOMALY   = 49.5946

EPHEMERIS_TYPE = 0
CLASSIFICATION_TYPE = U
NORAD_CAT_ID   = 270189
ELEMENT_SET_NO = 999
REV_AT_EPOCH   = 24856
BSTAR          = .56641319E-2
MEAN_MOTION_DOT = .499E-5
MEAN_MOTION_DDOT = 0

CCSDS_OMM_VERS = 2.0
CREATION_DATE  = 
ORIGINATOR     = 

OBJECT_NAME    = UNKNOWN
OBJECT_ID      = 
CENTER_NAME    = EARTH
REF_FRAME      = TEME
TIME_SYSTEM    = UTC
MEAN_ELEMENT_THEORY = SGP/SGP4

EPOCH          = 2026-02-02T06:14:54.265056
MEAN_MOTION    = 14.38485082
ECCENTRICITY   = .00316804
INCLINATION    = 98.6248
RA_OF_ASC_NODE = 39.0355
ARG_OF_PERICENTER = 213.0471
MEAN_ANOMALY   = 146.8737

EPHEMERIS_TYPE = 0
CLASSIFICATION_TYPE = U
NORAD_CAT_ID   = 270190
ELEMENT_SET_NO = 999
REV_AT_EPOCH   = 32300
BSTAR          = .16716554E-3
MEAN_MOTION_DOT = .468E-5
MEAN_MOTION_DDOT = 0

CCSDS_OMM_VERS = 2.0
CREATION_DATE  = 
ORIGINATOR     = 

OBJECT_NAME    = UNKNOWN
OBJECT_ID      = 
CENTER_NAME    = EARTH
REF_FRAME      = TEME
TIME_SYSTEM    = UTC
MEAN_ELEMENT_THEORY = SGP/SGP4

EPOCH          = 2026-02-01T07:56:09.070656
MEAN_MOTION    = 12.91461410
ECCENTRICITY   = .02186664
INCLINATION    = 62.8993
RA_OF_ASC_NODE = 247.8171
ARG_OF_PERICENTER = 292.8846
MEAN_ANOMALY   = 64.9198

EPHEMERIS_TYPE = 0
CLASSIFICATION_TYPE = U
NORAD_CAT_ID   = 270191
ELEMENT_SET_NO = 999
REV_AT_EPOCH   = 29147
BSTAR          = .71239924E-3
MEAN_MOTION_DOT = .131E-5
MEAN_MOTION_DDOT = 0

CCSDS_OMM_VERS = 2.0
CREATION_DATE  = 
ORIGINATOR     = 

OBJECT_NAME    = UNKNOWN
OBJECT_ID      = 
CENTER_NAME    = EARTH
REF_FRAME      = TEME
TIME_SYSTEM    = UTC
MEAN_ELEMENT_THEORY = SGP/SGP4

EPOCH          = 2026-01-23T15:18:05.931360
MEAN_MOTION    = 12.97877608
ECCENTRICITY   = .00217687
INCLINATION    = 90.2534
RA_OF_ASC_NODE = 3.5805
ARG_OF_PERICENTER = 77.8220
MEAN_ANOMALY   = 282.5337

EPHEMERIS_TYPE = 0
CLASSIFICATION_TYPE = U
NORAD_CAT_ID   = 270192
ELEMENT_SET_NO = 999
REV_AT_EPOCH   = 29130
BSTAR          = .21670536E-2
MEAN_MOTION_DOT = .641E-5
MEAN_MOTION_DDOT = 0

CCSDS_OMM_VERS = 2.0
CREATION_DATE  = 
ORIGINATOR     = 

OBJECT_NAME    = UNKNOWN
OBJECT_ID      = 
CENTER_NAME    = EARTH
REF_FRAME      = TEME
TIME_SYSTEM    = UTC
MEAN_ELEMENT_THEORY = SGP/SGP4

EPOCH          = 2026-01-13T08:48:10.862496
MEAN_MOTION    = 13.45985952
ECCENTRICITY   = .00555347
INCLINATION    = 100.4318
RA_OF_ASC_NODE = 249.5918
ARG_OF_PERICENTER = 5.4878
MEAN_ANOMALY   = 354.6849

EPHEMERIS_TYPE = 0
CLASSIFICATION_TYPE = U
NORAD_CAT_ID   = 270194
ELEMENT_SET_NO = 999
REV_AT_EPOCH   = 30050
BSTAR          = .29603289E-2
MEAN_MOTION_DOT = .1737E-4
MEAN_MOTION_DDOT = 0

CCSDS_OMM_VERS = 2.0
CREATION_DATE  = 
ORIGINATOR     = 

OBJECT_NAME    = UNKNOWN
OBJECT_ID      = 
CENTER_NAME    = EARTH
REF_FRAME      = TEME
TIME_SYSTEM    = UTC
MEAN_ELEMENT_THEORY = SGP/SGP4

EPOCH          = 2026-02-02T04:36:26.557920
MEAN_MOTION    = 12.96971581
ECCENTRICITY   = .00308971
INCLINATION    = 90.2389
RA_OF_ASC_NODE = 5.9406
ARG_OF_PERICENTER = 8.5415
MEAN_ANOMALY   = 351.6225

EPHEMERIS_TYPE = 0
CLASSIFICATION_TYPE = U
NORAD_CAT_ID   = 270195
ELEMENT_SET_NO = 999
REV_AT_EPOCH   = 29074
BSTAR          = -.11739119E-3
MEAN_MOTION_DOT = -.26E-6
MEAN_MOTION_DDOT = 0

CCSDS_OMM_VERS = 2.0
CREATION_DATE  = 
ORIGINATOR     = 

OBJECT_NAME    = UNKNOWN
OBJECT_ID      = 
CENTER_NAME    = EARTH
REF_FRAME      = TEME
TIME_SYSTEM    = UTC
MEAN_ELEMENT_THEORY = SGP/SGP4

EPOCH          = 2026-01-26T03:44:03.257664
MEAN_MOTION    = 13.94969796
ECCENTRICITY   = .00597449
INCLINATION    = 64.6957
RA_OF_ASC_NODE = 348.2984
ARG_OF_PERICENTER = 212.8254
MEAN_ANOMALY   = 146.9093

EPHEMERIS_TYPE = 0
CLASSIFICATION_TYPE = U
NORAD_CAT_ID   = 270196
ELEMENT_SET_NO = 999
REV_AT_EPOCH   = 31347
BSTAR          = .66847064E-3
MEAN_MOTION_DOT = .821E-5
MEAN_MOTION_DDOT = 0

CCSDS_OMM_VERS = 2.0
CREATION_DATE  = 
ORIGINATOR     = 

OBJECT_NAME    = UNKNOWN
OBJECT_ID      = 
CENTER_NAME    = EARTH
REF_FRAME      = TEME
TIME_SYSTEM    = UTC
MEAN_ELEMENT_THEORY = SGP/SGP4

EPOCH          = 2026-02-02T15:10:13.670688
MEAN_MOTION    = 13.86602567
ECCENTRICITY   = .03656842
INCLINATION    = 97.5724
RA_OF_ASC_NODE = 350.2200
ARG_OF_PERICENTER = 103.2823
MEAN_ANOMALY   = 260.9387

EPHEMERIS_TYPE = 0
CLASSIFICATION_TYPE = U
NORAD_CAT_ID   = 270197
ELEMENT_SET_NO = 999
REV_AT_EPOCH   = 31060
BSTAR          = .11672392E-2
MEAN_MOTION_DOT = .2271E-4
MEAN_MOTION_DDOT = 0

